start=new Date('2021-12-06T00:00:00.000Z').valueOf();
sats=[{"OBJECT_NAME":"STARLINK-2334","CLASSIFICATION_TYPE":"U","ARG_OF_PERICENTER":"78.1496","BSTAR":"0.00122120000000","PERIAPSIS":"546.203","APOAPSIS":"548.760","TIME_SYSTEM":"UTC","TLE_LINE1":"1 47792U 21018F   21339.79656066  .00017912  00000-0  12212-2 0  9994","SEMIMAJOR_AXIS":"6925.617","EPHEMERIS_TYPE":"0","OBJECT_TYPE":"PAYLOAD","FILE":"3233515","MEAN_MOTION_DDOT":"0.0000000000000","RA_OF_ASC_NODE":"11.8118","RCS_SIZE":"LARGE","TLE_LINE2":"2 47792  53.0559  11.8118 0001846  78.1496 281.9700 15.06312537 42525","OBJECT_ID":"2021-018F","INCLINATION":"53.0559","PERIOD":"95.598","REF_FRAME":"TEME","MEAN_ELEMENT_THEORY":"SGP4","SITE":"AFETR","EPOCH":"2021-12-05T19:07:02.841024","COUNTRY_CODE":"US","ECCENTRICITY":"0.00018460","CENTER_NAME":"EARTH","DECAY_DATE":null,"LAUNCH_DATE":"2021-03-11","ELEMENT_SET_NO":"999","MEAN_MOTION_DOT":"0.00017912","MEAN_ANOMALY":"281.9700","MEAN_MOTION":"15.06312537","NORAD_CAT_ID":"47792","REV_AT_EPOCH":"4252","GP_ID":"191170309"},{"OBJECT_NAME":"STARLINK-2338","APOAPSIS":"548.158","PERIAPSIS":"546.327","BSTAR":"0.00003930400000","CLASSIFICATION_TYPE":"U","ARG_OF_PERICENTER":"67.0176","TLE_LINE1":"1 47793U 21018G   21339.81127433  .00000304  00000-0  39304-4 0  9999","TIME_SYSTEM":"UTC","SEMIMAJOR_AXIS":"6925.378","OBJECT_TYPE":"PAYLOAD","EPHEMERIS_TYPE":"0","RA_OF_ASC_NODE":"11.7329","MEAN_MOTION_DDOT":"0.0000000000000","FILE":"3233515","RCS_SIZE":"LARGE","PERIOD":"95.593","INCLINATION":"53.0571","TLE_LINE2":"2 47793  53.0571  11.7329 0001322  67.0176 293.0952 15.06390485 42514","OBJECT_ID":"2021-018G","SITE":"AFETR","REF_FRAME":"TEME","MEAN_ELEMENT_THEORY":"SGP4","EPOCH":"2021-12-05T19:28:14.102112","COUNTRY_CODE":"US","ECCENTRICITY":"0.00013220","DECAY_DATE":null,"CENTER_NAME":"EARTH","MEAN_MOTION_DOT":"0.00000304","ELEMENT_SET_NO":"999","LAUNCH_DATE":"2021-03-11","MEAN_MOTION":"15.06390485","MEAN_ANOMALY":"293.0952","NORAD_CAT_ID":"47793","GP_ID":"191170059","REV_AT_EPOCH":"4251"},{"MEAN_MOTION":"15.06389408","MEAN_ANOMALY":"297.5214","ELEMENT_SET_NO":"999","MEAN_MOTION_DOT":"0.00000234","LAUNCH_DATE":"2021-03-11","GP_ID":"191171311","REV_AT_EPOCH":"4252","NORAD_CAT_ID":"47794","EPOCH":"2021-12-05T19:33:32.686560","SITE":"AFETR","REF_FRAME":"TEME","MEAN_ELEMENT_THEORY":"SGP4","DECAY_DATE":null,"CENTER_NAME":"EARTH","ECCENTRICITY":"0.00014150","COUNTRY_CODE":"US","MEAN_MOTION_DDOT":"0.0000000000000","RA_OF_ASC_NODE":"11.7320","FILE":"3233515","OBJECT_TYPE":"PAYLOAD","EPHEMERIS_TYPE":"0","PERIOD":"95.593","INCLINATION":"53.0564","TLE_LINE2":"2 47794  53.0564  11.7320 0001415  62.5919 297.5214 15.06389408 42520","OBJECT_ID":"2021-018H","RCS_SIZE":"LARGE","APOAPSIS":"548.226","PERIAPSIS":"546.266","BSTAR":"0.00003463400000","CLASSIFICATION_TYPE":"U","ARG_OF_PERICENTER":"62.5919","OBJECT_NAME":"STARLINK-2341","SEMIMAJOR_AXIS":"6925.381","TLE_LINE1":"1 47794U 21018H   21339.81496165  .00000234  00000-0  34634-4 0  9994","TIME_SYSTEM":"UTC"},{"OBJECT_TYPE":"PAYLOAD","EPHEMERIS_TYPE":"0","FILE":"3233515","RA_OF_ASC_NODE":"11.7709","MEAN_MOTION_DDOT":"0.0000000000000","RCS_SIZE":"LARGE","PERIOD":"95.592","OBJECT_ID":"2021-018J","TLE_LINE2":"2 47795  53.0573  11.7709 0001586  64.6015 295.5138 15.06397334 42576","INCLINATION":"53.0573","OBJECT_NAME":"STARLINK-2347","BSTAR":"0.00018454000000","PERIAPSIS":"546.123","APOAPSIS":"548.320","CLASSIFICATION_TYPE":"U","ARG_OF_PERICENTER":"64.6015","TIME_SYSTEM":"UTC","TLE_LINE1":"1 47795U 21018J   21339.80389769  .00002468  00000-0  18454-3 0  9997","SEMIMAJOR_AXIS":"6925.357","MEAN_MOTION_DOT":"0.00002468","ELEMENT_SET_NO":"999","LAUNCH_DATE":"2021-03-11","MEAN_ANOMALY":"295.5138","MEAN_MOTION":"15.06397334","NORAD_CAT_ID":"47795","GP_ID":"191171061","REV_AT_EPOCH":"4257","SITE":"AFETR","MEAN_ELEMENT_THEORY":"SGP4","REF_FRAME":"TEME","EPOCH":"2021-12-05T19:17:36.760416","ECCENTRICITY":"0.00015860","COUNTRY_CODE":"US","CENTER_NAME":"EARTH","DECAY_DATE":null},{"TIME_SYSTEM":"UTC","TLE_LINE1":"1 47796U 21018K   21339.81864798  .00000773  00000-0  70811-4 0  9992","SEMIMAJOR_AXIS":"6925.384","OBJECT_NAME":"STARLINK-2373","BSTAR":"0.00007081100000","PERIAPSIS":"546.242","APOAPSIS":"548.256","ARG_OF_PERICENTER":"58.7776","CLASSIFICATION_TYPE":"U","RCS_SIZE":"LARGE","PERIOD":"95.593","OBJECT_ID":"2021-018K","TLE_LINE2":"2 47796  53.0560  11.7126 0001454  58.7776 301.3356 15.06388355 42524","INCLINATION":"53.0560","OBJECT_TYPE":"PAYLOAD","EPHEMERIS_TYPE":"0","FILE":"3233515","RA_OF_ASC_NODE":"11.7126","MEAN_MOTION_DDOT":"0.0000000000000","COUNTRY_CODE":"US","ECCENTRICITY":"0.00014540","CENTER_NAME":"EARTH","DECAY_DATE":null,"SITE":"AFETR","MEAN_ELEMENT_THEORY":"SGP4","REF_FRAME":"TEME","EPOCH":"2021-12-05T19:38:51.185472","NORAD_CAT_ID":"47796","GP_ID":"191169809","REV_AT_EPOCH":"4252","ELEMENT_SET_NO":"999","MEAN_MOTION_DOT":"0.00000773","LAUNCH_DATE":"2021-03-11","MEAN_ANOMALY":"301.3356","MEAN_MOTION":"15.06388355"},{"CLASSIFICATION_TYPE":"U","ARG_OF_PERICENTER":"68.8736","BSTAR":"0.00004432000000","APOAPSIS":"548.135","PERIAPSIS":"546.276","OBJECT_NAME":"STARLINK-2377","SEMIMAJOR_AXIS":"6925.340","TIME_SYSTEM":"UTC","TLE_LINE1":"1 47797U 21018L   21339.85503699  .00000379  00000-0  44320-4 0  9995","FILE":"3233515","RA_OF_ASC_NODE":"36.5301","MEAN_MOTION_DDOT":"0.0000000000000","EPHEMERIS_TYPE":"0","OBJECT_TYPE":"PAYLOAD","OBJECT_ID":"2021-018L","TLE_LINE2":"2 47797  53.0562  36.5301 0001342  68.8736 291.2396 15.06402678 42178","INCLINATION":"53.0562","PERIOD":"95.592","RCS_SIZE":"MEDIUM","EPOCH":"2021-12-05T20:31:15.195936","MEAN_ELEMENT_THEORY":"SGP4","REF_FRAME":"TEME","SITE":"AFETR","CENTER_NAME":"EARTH","DECAY_DATE":null,"ECCENTRICITY":"0.00013420","COUNTRY_CODE":"US","MEAN_ANOMALY":"291.2396","MEAN_MOTION":"15.06402678","LAUNCH_DATE":"2021-03-11","ELEMENT_SET_NO":"999","MEAN_MOTION_DOT":"0.00000379","REV_AT_EPOCH":"4217","GP_ID":"191170560","NORAD_CAT_ID":"47797"},{"EPHEMERIS_TYPE":"0","OBJECT_TYPE":"PAYLOAD","FILE":"3233515","MEAN_MOTION_DDOT":"0.0000000000000","RA_OF_ASC_NODE":"11.6504","RCS_SIZE":"LARGE","OBJECT_ID":"2021-018M","TLE_LINE2":"2 47798  53.0569  11.6504 0001517  65.2187 294.8959 15.06400229 42523","INCLINATION":"53.0569","PERIOD":"95.592","OBJECT_NAME":"STARLINK-2379","ARG_OF_PERICENTER":"65.2187","CLASSIFICATION_TYPE":"U","BSTAR":"0.00015784000000","PERIAPSIS":"546.162","APOAPSIS":"548.263","TIME_SYSTEM":"UTC","TLE_LINE1":"1 47798U 21018M   21339.82969396  .00002070  00000-0  15784-3 0  9994","SEMIMAJOR_AXIS":"6925.348","LAUNCH_DATE":"2021-03-11","MEAN_MOTION_DOT":"0.00002070","ELEMENT_SET_NO":"999","MEAN_ANOMALY":"294.8959","MEAN_MOTION":"15.06400229","NORAD_CAT_ID":"47798","REV_AT_EPOCH":"4252","GP_ID":"191170811","MEAN_ELEMENT_THEORY":"SGP4","REF_FRAME":"TEME","SITE":"AFETR","EPOCH":"2021-12-05T19:54:45.558144","COUNTRY_CODE":"US","ECCENTRICITY":"0.00015170","CENTER_NAME":"EARTH","DECAY_DATE":null},{"NORAD_CAT_ID":"47799","REV_AT_EPOCH":"4251","GP_ID":"191171562","LAUNCH_DATE":"2021-03-11","MEAN_MOTION_DOT":"0.00003711","ELEMENT_SET_NO":"999","MEAN_ANOMALY":"288.8548","MEAN_MOTION":"15.06402690","ECCENTRICITY":"0.00016200","COUNTRY_CODE":"US","CENTER_NAME":"EARTH","DECAY_DATE":null,"MEAN_ELEMENT_THEORY":"SGP4","REF_FRAME":"TEME","SITE":"AFETR","EPOCH":"2021-12-05T19:49:27.657120","RCS_SIZE":"LARGE","OBJECT_ID":"2021-018N","TLE_LINE2":"2 47799  53.0556  11.6828 0001620  71.2617 288.8548 15.06402690 42519","INCLINATION":"53.0556","PERIOD":"95.592","EPHEMERIS_TYPE":"0","OBJECT_TYPE":"PAYLOAD","FILE":"3233515","MEAN_MOTION_DDOT":"0.0000000000000","RA_OF_ASC_NODE":"11.6828","TIME_SYSTEM":"UTC","TLE_LINE1":"1 47799U 21018N   21339.82601455  .00003711  00000-0  26789-3 0  9994","SEMIMAJOR_AXIS":"6925.340","OBJECT_NAME":"STARLINK-2380","CLASSIFICATION_TYPE":"U","ARG_OF_PERICENTER":"71.2617","BSTAR":"0.00026789000000","APOAPSIS":"548.327","PERIAPSIS":"546.083"},{"TIME_SYSTEM":"UTC","TLE_LINE1":"1 47800U 21018P   21339.51639147  .00000347  00000-0  42204-4 0  9995","SEMIMAJOR_AXIS":"6925.368","OBJECT_NAME":"STARLINK-2381","BSTAR":"0.00004220400000","APOAPSIS":"548.250","PERIAPSIS":"546.216","ARG_OF_PERICENTER":"59.6393","CLASSIFICATION_TYPE":"U","RCS_SIZE":"LARGE","PERIOD":"95.593","TLE_LINE2":"2 47800  53.0572  13.0629 0001469  59.6393 300.4741 15.06393612 42471","OBJECT_ID":"2021-018P","INCLINATION":"53.0572","OBJECT_TYPE":"PAYLOAD","EPHEMERIS_TYPE":"0","FILE":"3233179","MEAN_MOTION_DDOT":"0.0000000000000","RA_OF_ASC_NODE":"13.0629","COUNTRY_CODE":"US","ECCENTRICITY":"0.00014690","CENTER_NAME":"EARTH","DECAY_DATE":null,"SITE":"AFETR","REF_FRAME":"TEME","MEAN_ELEMENT_THEORY":"SGP4","EPOCH":"2021-12-05T12:23:36.223008","NORAD_CAT_ID":"47800","GP_ID":"191139674","REV_AT_EPOCH":"4247","MEAN_MOTION_DOT":"0.00000347","ELEMENT_SET_NO":"999","LAUNCH_DATE":"2021-03-11","MEAN_ANOMALY":"300.4741","MEAN_MOTION":"15.06393612"},{"FILE":"3233515","RA_OF_ASC_NODE":"16.7655","MEAN_MOTION_DDOT":"0.0000000000000","OBJECT_TYPE":"PAYLOAD","EPHEMERIS_TYPE":"0","PERIOD":"95.593","OBJECT_ID":"2021-018Q","TLE_LINE2":"2 47801  53.0571  16.7655 0001475  56.8698 303.2433 15.06389597 42458","INCLINATION":"53.0571","RCS_SIZE":"LARGE","BSTAR":"0.00001943200000","APOAPSIS":"548.267","PERIAPSIS":"546.224","CLASSIFICATION_TYPE":"U","ARG_OF_PERICENTER":"56.8698","OBJECT_NAME":"STARLINK-2382","SEMIMAJOR_AXIS":"6925.380","TIME_SYSTEM":"UTC","TLE_LINE1":"1 47801U 21018Q   21339.80433789  .00000008  00000-0  19432-4 0  9993","MEAN_ANOMALY":"303.2433","MEAN_MOTION":"15.06389597","MEAN_MOTION_DOT":"0.00000008","ELEMENT_SET_NO":"999","LAUNCH_DATE":"2021-03-11","GP_ID":"191170060","REV_AT_EPOCH":"4245","NORAD_CAT_ID":"47801","EPOCH":"2021-12-05T19:18:14.793696","SITE":"AFETR","MEAN_ELEMENT_THEORY":"SGP4","REF_FRAME":"TEME","CENTER_NAME":"EARTH","DECAY_DATE":null,"ECCENTRICITY":"0.00014750","COUNTRY_CODE":"US"}];
